#aV2023  1  6  0  0  0.00000000     288 DD+AD WGS84 FIT  NGA
## 2243 432000.00000000   300.00000000 59950 0.0000000000000
+   31     1  2  3  4  5  6  7  8  9 10 11 12 13 14 15 16 17
+         18 19 20 21 22 23 24 25 26 27 29 30 31 32  0  0  0
+          0  0  0  0  0  0  0  0  0  0  0  0  0  0  0  0  0
+          0  0  0  0  0  0  0  0  0  0  0  0  0  0  0  0  0
+          0  0  0  0  0  0  0  0  0  0  0  0  0  0  0  0  0
++         2  2  2  2  2  2  2  2  2  2  2  2  2  2  2  2  2
++         2  2  2  2  2  2  2  2  2  2  2  2  2  2  0  0  0
++         0  0  0  0  0  0  0  0  0  0  0  0  0  0  0  0  0
++         0  0  0  0  0  0  0  0  0  0  0  0  0  0  0  0  0
++         0  0  0  0  0  0  0  0  0  0  0  0  0  0  0  0  0
%c cc cc ccc ccc cccc cccc cccc cccc ccccc ccccc ccccc ccccc
%c cc cc ccc ccc cccc cccc cccc cccc ccccc ccccc ccccc ccccc
%f  0.0000000  0.000000000  0.00000000000  0.000000000000000
%f  0.0000000  0.000000000  0.00000000000  0.000000000000000
%i    0    0    0    0      0      0      0      0         0
%i    0    0    0    0      0      0      0      0         0
/*      NGA, ST. LOUIS,MO.                                  
/*   EPHEMERIS COMPUTED FROM 2 DAYS OF DATA                 
/*   EPOCHA v8 SMOOTHER                                     
/*   G2139 IERS2010 SATIGS SATAPC                           
*  2023  1  6 20 20  0.00000000
P  1   6940.189691 -18040.551018 -18365.636720    227.738163                    
V  1  20251.993747 -10437.834711  18551.083748     -0.048465                    
P  2  -2763.928485  18578.445002  19497.950694   -628.851710                    
V  2 -19512.129912  12834.228126 -15291.457105      0.022104                    
P  3  -3053.283244 -17207.551521 -20156.513991   -373.552916                    
V  3  22524.708712  11428.737574 -13142.337421      0.017464                    
P  4    568.619677 -26493.369936   -301.368238    -53.945438                    
V  4   2863.518850    426.986386 -31855.614496      0.075260                    
P  5 -12281.826999  10228.156263  21061.293087   -110.981876                    
V  5 -24023.707034 -12574.052217  -7723.948759     -0.014598                    
P  6 -22767.623832   3384.876570 -13256.681072    554.139257                    
V  6  13721.739198  -9932.044404 -25879.574309      0.064515                    
P  7  -8742.110068 -13003.980659  21880.270877    262.996760                    
V  7  23055.196642 -13681.611492    614.033385     -0.060311                    
P  8   7060.481591 -22604.974304  11576.651184   -102.298481                    
V  8   3362.271167  14777.361489  27067.292447     -0.018153                    
P  9  -8139.966920 -23102.224336  10133.482975   -240.949301                    
V  9   2149.283653 -13108.567969 -27986.399621      0.064712                    
P 10  24095.168324  11267.468136  -2500.595103    -19.324276                    
V 10   1958.356343   3391.651244  31696.746164     -0.016001                    
P 11 -23727.887027  11838.907822  -1124.655834    -72.827543                    
V 11    -22.534262  -3093.526782 -31812.966818     -0.084542                    
P 12    453.988394  17172.980008 -20560.266738   -324.964392                    
V 12 -21828.656785 -13096.160729 -11475.258845     -0.045383                    
P 13 -12895.426884  16689.705620  15849.402543    454.926818                    
V 13    463.902889 -20592.238482  22003.699764      0.064603                    
P 14 -23063.416985 -13297.418711   -522.333397    -54.510281                    
V 14    984.343659  -2960.074018  31432.777780      0.073227                    
P 15  -4297.712388  23590.654899  10666.960288      2.369076                    
V 15  -5751.608971 -13635.197793  26996.451388      0.032666                    
P 16  16342.460139  -5642.661916  20000.521126   -524.569980                    
V 16  21013.057011  15159.293729 -12253.250702      0.009903                    
P 17 -12536.451321 -12568.086826 -19288.697318    691.523962                    
V 17   2267.949280 -25360.384391  14806.912261      0.026628                    
P 18  10975.743497  10720.402561  21699.104416    -88.646542                    
V 18 -23624.733655  14057.261952   4866.710190     -0.150761                    
P 19 -15012.067717   -442.392242 -22128.875212    260.612083                    
V 19   2163.491728 -27424.669799  -1187.242991      0.050733                    
P 20 -21679.275497   3640.632135  14778.182599    458.722655                    
V 20 -16933.718628  -8636.104312 -22970.376016     -0.024166                    
P 21  13981.405891 -19182.422533 -10452.559650    153.246750                    
V 21  13576.575846  -5885.024908  28188.364523      0.003578                    
P 22  14996.226409  -3822.602637 -21138.897836    400.425513                    
V 22  -1096.563564  27856.773465  -5871.732434      0.079467                    
P 23  19346.717594  16307.844265   8310.507863      1.749429                    
V 23 -10329.596878  -2870.560236  29539.076854      0.010127                    
P 24  -9374.780403  20158.157363 -14561.157807    -18.386298                    
V 24 -16370.135152   8343.998378  23052.421943     -0.168859                    
P 25  11096.393283  18657.291058 -15796.495848    408.959574                    
V 25 -17961.767102  -7582.427901 -21723.452064      0.034076                    
P 26  23983.476832   1903.105968  11510.727533    239.867568                    
V 26  12105.304425   8824.125739 -26097.654147      0.006546                    
P 27  12672.331114 -13117.836991  18928.996776    133.618666                    
V 27   2105.777446  24590.625621  15848.021830     -0.096352                    
P 29   4192.645722  24841.429582   8240.727389   -578.843961                    
V 29  -2738.208891  10393.410539 -29851.623750     -0.022790                    
P 30 -19330.934608  -4002.338874  17975.633775   -533.890770                    
V 30  18580.412953 -13055.150968  16903.249234      0.008695                    
P 31  23813.642128  -4126.856975 -11686.040120   -205.553697                    
V 31 -11430.885050   9081.916026 -26429.100087     -0.011155                    
P 32  14472.879736   9034.692395 -20249.321714   -355.374417                    
V 32   -187.806124  26034.114902  11195.033454     -0.126051                    
EOF
